STARLINK-2189
1 17768C 21017AY  21326.13525859  .00005337  00000-0  35764-3 0  3265
2 17768  53.0541  68.1489 0001314  68.8454 337.5050 15.06390781    16
